NORAD_CAT_ID,OBJECT_NAME,OBJECT_TYPE,EPOCH,MEAN_MOTION,ECCENTRICITY,INCLINATION,RA_OF_ASC_NODE,ARG_OF_PERICENTER,MEAN_ANOMALY,BSTAR,MEAN_MOTION_DOT,MEAN_MOTION_DDOT,TLE_LINE0,TLE_LINE1,TLE_LINE2,SEMIMAJOR_AXIS,PERIOD,APOGEE,PERIGEE,DECAYED
51751.0,STARLINK-3506,PAYLOAD,2024-01-07 22:41:14,15.08838278,0.0001527,53.2174,263.4113,98.8462,261.2703,4.4676e-05,4.23e-06,0.0,0 STARLINK-3506,1 51751U 22016AP  24007.94531200  .00000423  00000-0  44676-4 0  9997,2 51751  53.2174 263.4113 0001527  98.8462 261.2703 15.08838278104179,6917.886,95.438,540.807,538.694,0.0
51751.0,STARLINK-3506,PAYLOAD,2024-01-08 00:16:37,15.08840314,0.0001477,53.2173,263.1138,90.4979,269.6182,5.9181e-05,6.54e-06,0.0,0 STARLINK-3506,1 51751U 22016AP  24008.01155070  .00000654  00000-0  59181-4 0  9996,2 51751  53.2173 263.1138 0001477  90.4979 269.6182 15.08840314104185,6917.879,95.438,540.766,538.723,0.0
51751.0,STARLINK-3506,PAYLOAD,2024-01-08 22:32:03,15.08825329,0.0001296,53.2165,258.9461,94.0978,266.0162,-4.6455e-05,-1.027e-05,0.0,0 STARLINK-3506,1 51751U 22016AP  24008.93892818 -.00001027  00000-0 -46455-4 0  9992,2 51751  53.2165 258.9461 0001296  94.0978 266.0162 15.08825329104329,6917.925,95.438,540.687,538.894,0.0
51751.0,STARLINK-3506,PAYLOAD,2024-01-09 22:22:50,15.08837216,0.0001845,53.2171,254.4826,63.9621,296.1561,2.3007e-05,7.8e-07,0.0,0 STARLINK-3506,1 51751U 22016AP  24009.93252572  .00000078  00000-0  23007-4 0  9991,2 51751  53.2171 254.4826 0001845  63.9621 296.1561 15.08837216104473,6917.889,95.438,541.03,538.478,0.0
51751.0,STARLINK-3506,PAYLOAD,2024-01-10 01:33:36,15.08843151,0.0001794,53.2189,253.8817,119.2595,240.8576,1.945e-05,2.1e-07,0.0,0 STARLINK-3506,1 51751U 22016AP  24010.06500008  .00000021  00000-0  19450-4 0  9992,2 51751  53.2189 253.8817 0001794 119.2595 240.8576 15.08843151105617,6917.871,95.437,540.977,538.495,0.0
51751.0,STARLINK-3506,PAYLOAD,2024-01-11 01:24:22,15.0883666,0.0002189,53.2172,249.426,54.4835,305.6361,0.00038357,5.821e-05,0.0,0 STARLINK-3506,1 51751U 22016AP  24011.05859647  .00005821  00000-0  38357-3 0  9997,2 51751  53.2172 249.4260 0002189  54.4835 305.6361 15.08836660104649,6917.891,95.438,541.27,538.241,0.0
51751.0,STARLINK-3506,PAYLOAD,2024-01-11 18:53:36,15.08852275,0.0002059,53.218,246.1516,117.6145,242.5056,-4.5342e-05,-1.01e-05,0.0,0 STARLINK-3506,1 51751U 22016AP  24011.78723371 -.00001010  00000-0 -45342-4 0  9992,2 51751  53.2180 246.1516 0002059 117.6145 242.5056 15.08852275105874,6917.843,95.437,541.132,538.283,0.0
51751.0,STARLINK-3506,PAYLOAD,2024-01-11 22:04:23,15.08850909,0.0001592,53.2176,245.5641,84.8295,275.2879,-1.5072e-05,-5.28e-06,0.0,0 STARLINK-3506,1 51751U 22016AP  24011.91971621 -.00000528  00000-0 -15072-4 0  9990,2 51751  53.2176 245.5641 0001592  84.8295 275.2879 15.08850909104779,6917.847,95.437,540.813,538.611,0.0
51751.0,STARLINK-3506,PAYLOAD,2024-01-12 01:15:09,15.088519,0.0001539,53.2175,244.9689,91.753,268.3638,-7.8584e-06,-4.13e-06,0.0,0 STARLINK-3506,1 51751U 22016AP  24012.05219389 -.00000413  00000-0 -78584-5 0  9993,2 51751  53.2175 244.9689 0001539  91.7530 268.3638 15.08851900104793,6917.844,95.437,540.774,538.644,0.0
51751.0,STARLINK-3506,PAYLOAD,2024-01-12 20:19:47,15.08844271,0.0001483,53.2167,241.4011,96.705,263.4111,-8.9298e-05,-1.709e-05,0.0,0 STARLINK-3506,1 51751U 22016AP  24012.84707867 -.00001709  00000-0 -89298-4 0  9995,2 51751  53.2167 241.4011 0001483  96.7050 263.4111 15.08844271106039,6917.867,95.437,540.758,538.706,0.0
51751.0,STARLINK-3506,PAYLOAD,2024-01-12 21:55:10,15.08845629,0.0001491,53.2168,241.1035,99.5667,260.5494,-7.4218e-05,-1.469e-05,0.0,0 STARLINK-3506,1 51751U 22016AP  24012.91331693 -.00001469  00000-0 -74218-4 0  9992,2 51751  53.2168 241.1035 0001491  99.5667 260.5494 15.08845629104923,6917.863,95.437,540.76,538.697,0.0
51751.0,STARLINK-3506,PAYLOAD,2024-01-13 20:10:34,15.08842678,0.0001465,53.216,236.9402,112.236,247.8788,1.6363e-05,-2.8e-07,0.0,0 STARLINK-3506,1 51751U 22016AP  24013.84067594 -.00000028  00000-0  16363-4 0  9997,2 51751  53.2160 236.9402 0001465 112.2360 247.8788 15.08842678105060,6917.872,95.437,540.751,538.724,0.0
51751.0,STARLINK-3506,PAYLOAD,2024-01-14 20:01:21,15.08836801,0.000132,53.2158,232.4817,96.104,264.0103,5.5837e-05,6.01e-06,0.0,0 STARLINK-3506,1 51751U 22016AP  24014.83428141  .00000601  00000-0  55837-4 0  9991,2 51751  53.2158 232.4817 0001320  96.1040 264.0103 15.08836801106337,6917.89,95.438,540.668,538.842,0.0
51751.0,STARLINK-3506,PAYLOAD,2024-01-14 23:12:08,15.08839399,0.0001323,53.2159,231.887,94.1039,266.0105,7.5158e-05,9.08e-06,0.0,0 STARLINK-3506,1 51751U 22016AP  24014.96675956  .00000908  00000-0  75158-4 0  9991,2 51751  53.2159 231.8870 0001323  94.1039 266.0105 15.08839399105236,6917.882,95.438,540.662,538.832,0.0
51751.0,STARLINK-3506,PAYLOAD,2024-01-15 19:52:08,15.08839149,0.0001368,53.216,228.0203,95.5337,264.5811,5.5417e-05,5.94e-06,0.0,0 STARLINK-3506,1 51751U 22016AP  24015.82788121  .00000594  00000-0  55417-4 0  9993,2 51751  53.2160 228.0203 0001368  95.5337 264.5811 15.08839149105365,6917.883,95.438,540.694,538.802,0.0
51751.0,STARLINK-3506,PAYLOAD,2024-01-15 23:02:55,15.08841253,0.0001367,53.2162,227.4259,85.9318,274.183,7.1165e-05,8.45e-06,0.0,0 STARLINK-3506,1 51751U 22016AP  24015.96035993  .00000845  00000-0  71165-4 0  9997,2 51751  53.2162 227.4259 0001367  85.9318 274.1830 15.08841253106506,6917.877,95.437,540.687,538.796,0.0
51751.0,STARLINK-3506,PAYLOAD,2024-01-16 14:56:46,15.08839194,0.0001349,53.2157,224.4537,80.7606,279.3539,4.6503e-05,4.52e-06,0.0,0 STARLINK-3506,1 51751U 22016AP  24016.62276293  .00000452  00000-0  46503-4 0  9993,2 51751  53.2157 224.4537 0001349  80.7606 279.3539 15.08839194105489,6917.883,95.438,540.681,538.815,0.0
51751.0,STARLINK-3506,PAYLOAD,2024-01-16 21:18:19,15.0884215,0.0001395,53.2161,223.2643,81.4329,278.6821,6.7764e-05,7.91e-06,0.0,0 STARLINK-3506,1 51751U 22016AP  24016.88772026  .00000791  00000-0  67764-4 0  9994,2 51751  53.2161 223.2643 0001395  81.4329 278.6821 15.08842150105527,6917.874,95.437,540.704,538.774,0.0
51751.0,STARLINK-3506,PAYLOAD,2024-01-16 22:53:42,15.08842578,0.0001393,53.216,222.9668,81.6262,278.4888,6.9889e-05,8.25e-06,0.0,0 STARLINK-3506,1 51751U 22016AP  24016.95395982  .00000825  00000-0  69889-4 0  9992,2 51751  53.2160 222.9668 0001393  81.6262 278.4888 15.08842578105531,6917.873,95.437,540.701,538.774,0.0
51751.0,STARLINK-3506,PAYLOAD,2024-01-17 19:33:42,15.0884221,0.0001391,53.2154,219.1007,81.9123,278.2027,5.0317e-05,5.13e-06,0.0,0 STARLINK-3506,1 51751U 22016AP  24017.81508062  .00000513  00000-0  50317-4 0  9993,2 51751  53.2154 219.1007 0001391  81.9123 278.2027 15.08842210106780,6917.874,95.437,540.701,538.776,0.0
51751.0,STARLINK-3506,PAYLOAD,2024-01-18 19:24:29,15.08844404,0.0001357,53.2151,214.6399,86.2877,273.827,5.4349e-05,5.77e-06,0.0,0 STARLINK-3506,1 51751U 22016AP  24018.80867757  .00000577  00000-0  54349-4 0  9991,2 51751  53.2151 214.6399 0001357  86.2877 273.8270 15.08844404105818,6917.867,95.437,540.671,538.793,0.0
51751.0,STARLINK-3506,PAYLOAD,2024-01-18 22:35:15,15.08845678,0.0001354,53.2151,214.045,87.2111,272.9036,6.3059e-05,7.16e-06,0.0,0 STARLINK-3506,1 51751U 22016AP  24018.94115594  .00000716  00000-0  63059-4 0  9994,2 51751  53.2151 214.0450 0001354  87.2111 272.9036 15.08845678106959,6917.863,95.437,540.665,538.791,0.0
51751.0,STARLINK-3506,PAYLOAD,2024-01-19 12:53:44,15.08841581,0.0001396,53.2155,211.3663,101.8356,258.2793,3.2233e-05,2.25e-06,0.0,0 STARLINK-3506,1 51751U 22016AP  24019.53731799  .00000225  00000-0  32233-4 0  9996,2 51751  53.2155 211.3663 0001396 101.8356 258.2793 15.08841581105921,6917.876,95.437,540.706,538.775,0.0
51751.0,STARLINK-3506,PAYLOAD,2024-01-19 19:15:16,15.08843466,0.000139,53.2154,210.1778,92.4786,267.6366,4.7085e-05,4.62e-06,0.0,0 STARLINK-3506,1 51751U 22016AP  24019.80227618  .00000462  00000-0  47085-4 0  9990,2 51751  53.2154 210.1778 0001390  92.4786 267.6366 15.08843466105968,6917.87,95.437,540.696,538.773,0.0
51751.0,STARLINK-3506,PAYLOAD,2024-01-20 12:44:31,15.08837753,0.0001504,53.2156,206.9079,88.4701,271.6463,7.0792e-07,-2.77e-06,0.0,0 STARLINK-3506,1 51751U 22016AP  24020.53092198 -.00000277  00000-0  70792-6 0  9993,2 51751  53.2156 206.9079 0001504  88.4701 271.6463 15.08837753106074,6917.887,95.438,540.793,538.712,0.0
51751.0,STARLINK-3506,PAYLOAD,2024-01-20 19:06:04,15.08836881,0.0001357,53.2152,205.7172,96.1463,263.9684,-2.6097e-06,-3.29e-06,0.0,0 STARLINK-3506,1 51751U 22016AP  24020.79588199 -.00000329  00000-0 -26097-5 0  9999,2 51751  53.2152 205.7172 0001357  96.1463 263.9684 15.08836881107237,6917.89,95.438,540.694,538.816,0.0
51751.0,STARLINK-3506,PAYLOAD,2024-01-21 17:21:27,15.08842103,0.000129,53.2156,201.5538,94.1006,266.0134,3.9118e-05,3.35e-06,0.0,0 STARLINK-3506,1 51751U 22016AP  24021.72323802  .00000335  00000-0  39118-4 0  9993,2 51751  53.2156 201.5538 0001290  94.1006 266.0134 15.08842103106257,6917.874,95.437,540.631,538.847,0.0
51751.0,STARLINK-3506,PAYLOAD,2024-01-22 12:26:06,15.08834273,0.0001269,53.216,197.985,89.1491,270.9646,3.3382e-05,2.43e-06,0.0,0 STARLINK-3506,1 51751U 22016AP  24022.51812502  .00000243  00000-0  33382-4 0  9996,2 51751  53.2160 197.9850 0001269  89.1491 270.9646 15.08834273107493,6917.898,95.438,540.641,538.885,0.0
51751.0,STARLINK-3506,PAYLOAD,2024-01-22 18:47:38,15.08833442,0.0001251,53.2162,196.7955,86.6652,273.4483,1.9537e-05,2.3e-07,0.0,0 STARLINK-3506,1 51751U 22016AP  24022.78308687  .00000023  00000-0  19537-4 0  9991,2 51751  53.2162 196.7955 0001251  86.6652 273.4483 15.08833442106415,6917.9,95.438,540.631,538.9,0.0
51751.0,STARLINK-3506,PAYLOAD,2024-01-23 15:27:39,15.08837304,0.0001244,53.2164,192.9299,84.3445,275.7689,6.7814e-06,-1.8e-06,0.0,0 STARLINK-3506,1 51751U 22016AP  24023.64420782 -.00000180  00000-0  67814-5 0  9995,2 51751  53.2164 192.9299 0001244  84.3445 275.7689 15.08837304107665,6917.889,95.438,540.614,538.893,0.0
